Event ID,Event Name,Start Date/Time,End Date/Time,Event Agency,Event Type,Event Borough,Event Location,Event Street Side,Street Closure Type,Community Board,Police Precinct,latitude,longitude
459868,Bronx Night Market,12/22/2019 01:00:00 PM,12/22/2019 10:30:00 PM,Street Activity Permit Office,Plaza Event,Bronx,Fordham Plaza: Fordham Plaza EAST FORDHAM ROAD between WEBSTER AVENUE and FIREFIGHTERS BOULEVARD,Full,Pedestrian Plaza,"6,","48,",40.861595,-73.89106799999999
518518,Plaza de las Americas,12/17/2019 07:00:00 AM,12/17/2019 07:00:00 PM,Street Activity Permit Office,Miscellaneous,Manhattan,Plaza de Las Americas: Plaza de Las Americas WEST  175 STREET between BROADWAY and WADSWORTH AVENUE,Full,Pedestrian Plaza,"12,","33,",40.84609080000001,-73.9380967
468135,Miscellaneous,12/05/2019 07:00:00 AM,12/05/2019 03:00:00 PM,Parks Department,Special Event,Manhattan,"Booker T. Washington Playground: Soccer-01 ,Booker T. Washington Playground: Softball-01 ,Moore Playground: Softball-01 ,Playground one Twenty Five CXXV (PS 125): Softball-01 ,Holcombe Rucker Park: Softball-01 ,Tecumseh Playground: Softball-01 ,Wagner Playground: Soccer-01 ,Wagner Playground: Softball-01 ,Jacob H. Schiff Playground: Soccer-01 ,Jacob H. Schiff Playground: Softball-01 ,Peter's Field: Soccer-01 ,Peter's Field: Softball-01 ,Happy Warrior Playground: Softball-01 ,Sol Lain Plgd: Softb","",N/A,"03, 06, 07, 09, 10, 11,","13, 20, 24, 25, 26, 30, 32, 7,",40.8009054,-73.9637367
468135,Miscellaneous,12/11/2019 07:00:00 AM,12/11/2019 03:00:00 PM,Parks Department,Special Event,Manhattan,"Booker T. Washington Playground: Soccer-01 ,Booker T. Washington Playground: Softball-01 ,Moore Playground: Softball-01 ,Playground one Twenty Five CXXV (PS 125): Softball-01 ,Holcombe Rucker Park: Softball-01 ,Tecumseh Playground: Softball-01 ,Wagner Playground: Soccer-01 ,Wagner Playground: Softball-01 ,Jacob H. Schiff Playground: Soccer-01 ,Jacob H. Schiff Playground: Softball-01 ,Peter's Field: Soccer-01 ,Peter's Field: Softball-01 ,Happy Warrior Playground: Softball-01 ,Sol Lain Plgd: Softb","",N/A,"03, 06, 07, 09, 10, 11,","13, 20, 24, 25, 26, 30, 32, 7,",40.8009054,-73.9637367
468135,Miscellaneous,12/26/2019 07:00:00 AM,12/26/2019 03:00:00 PM,Parks Department,Special Event,Manhattan,"Booker T. Washington Playground: Soccer-01 ,Booker T. Washington Playground: Softball-01 ,Moore Playground: Softball-01 ,Playground one Twenty Five CXXV (PS 125): Softball-01 ,Holcombe Rucker Park: Softball-01 ,Tecumseh Playground: Softball-01 ,Wagner Playground: Soccer-01 ,Wagner Playground: Softball-01 ,Jacob H. Schiff Playground: Soccer-01 ,Jacob H. Schiff Playground: Softball-01 ,Peter's Field: Soccer-01 ,Peter's Field: Softball-01 ,Happy Warrior Playground: Softball-01 ,Sol Lain Plgd: Softb","",N/A,"03, 06, 07, 09, 10, 11,","13, 20, 24, 25, 26, 30, 32, 7,",40.8009054,-73.9637367
512150,Soccer -Regulation,12/17/2019 07:00:00 AM,12/17/2019 10:00:00 PM,Parks Department,Sport - Adult,Manhattan,"Randall's Island Park: East River Fields-Soccer-84 ,Randall's Island Park: East River Fields-Soccer-82 ,Randall's Island Park: East River Fields-Soccer-82 ,Randall's Island Park: East River Fields-Soccer-83 ,Randall's Island Park: Wards Meadow Fields-Soccer-70 ,Randall's Island Park: East River Fields-Soccer-82 ,Randall's Island Park: East River Fields-Soccer-85 ,Randall's Island Park: Sunken Garden Fields-Soccer-90 ,Randall's Island Park: Sunken Garden Fields-Soccer-91 ,Randall's Island Park: E","",N/A,"11,","25,",40.7845381,-73.93463249999999
512150,Soccer -Regulation,12/06/2019 07:00:00 AM,12/06/2019 10:00:00 PM,Parks Department,Sport - Adult,Manhattan,"Randall's Island Park: East River Fields-Soccer-84 ,Randall's Island Park: East River Fields-Soccer-82 ,Randall's Island Park: East River Fields-Soccer-82 ,Randall's Island Park: East River Fields-Soccer-83 ,Randall's Island Park: Wards Meadow Fields-Soccer-70 ,Randall's Island Park: East River Fields-Soccer-82 ,Randall's Island Park: East River Fields-Soccer-85 ,Randall's Island Park: Sunken Garden Fields-Soccer-90 ,Randall's Island Park: Sunken Garden Fields-Soccer-91 ,Randall's Island Park: E","",N/A,"11,","25,",40.7845381,-73.93463249999999
518518,Plaza de las Americas,12/31/2019 07:00:00 AM,12/31/2019 07:00:00 PM,Street Activity Permit Office,Miscellaneous,Manhattan,Plaza de Las Americas: Plaza de Las Americas WEST  175 STREET between BROADWAY and WADSWORTH AVENUE,Full,Pedestrian Plaza,"12,","33,",40.84609080000001,-73.9380967
512150,Soccer -Regulation,12/15/2019 07:00:00 AM,12/15/2019 10:00:00 PM,Parks Department,Sport - Adult,Manhattan,"Randall's Island Park: East River Fields-Soccer-84 ,Randall's Island Park: East River Fields-Soccer-82 ,Randall's Island Park: East River Fields-Soccer-82 ,Randall's Island Park: East River Fields-Soccer-83 ,Randall's Island Park: Wards Meadow Fields-Soccer-70 ,Randall's Island Park: East River Fields-Soccer-82 ,Randall's Island Park: East River Fields-Soccer-85 ,Randall's Island Park: Sunken Garden Fields-Soccer-90 ,Randall's Island Park: Sunken Garden Fields-Soccer-91 ,Randall's Island Park: E","",N/A,"11,","25,",40.7845381,-73.93463249999999
519518,OUR LADY OF GUADALUPE FEAST PROCESSION,12/12/2019 07:45:00 PM,12/12/2019 08:45:00 PM,Police Department,Parade,Bronx,"627 EAST  187 STREET, EAST  187 STREET between BELMONT AVENUE and CAMBRELENG AVENUE,  CAMBRELENG AVENUE between EAST  187 STREET and EAST  189 STREET,  EAST  189 STREET between CAMBRELENG AVENUE and ARTHUR AVENUE,  ARTHUR AVENUE between EAST  189 STREET and CRESCENT AVENUE,  CRESCENT AVENUE between ARTHUR AVENUE and EAST  187 STREET, 627 EAST  187 STREET","",Full Street Closure,"6,","48,",40.8552103,-73.88637949999999
458979,Staten Island TriDuathlon to benefit the Rocco Laurie Scholarshp Fund,08/04/2019 06:30:00 AM,08/04/2019 11:00:00 AM,Police Department,Athletic Race / Tour,Staten Island,"South Beach Wetlands: South Beach Wetlands ,South Beach Wetlands: South Beach Wetlands , FR CAPODANNO BOULEVARD between SAND LANE and GREELEY AVENUE","",Full Street Closure,"2, 95,","122,",40.5869221,-74.0729716
512150,Soccer -Regulation,01/01/2020 07:00:00 AM,01/01/2020 10:00:00 PM,Parks Department,Sport - Adult,Manhattan,"Randall's Island Park: East River Fields-Soccer-84 ,Randall's Island Park: East River Fields-Soccer-82 ,Randall's Island Park: East River Fields-Soccer-82 ,Randall's Island Park: East River Fields-Soccer-83 ,Randall's Island Park: Wards Meadow Fields-Soccer-70 ,Randall's Island Park: East River Fields-Soccer-82 ,Randall's Island Park: East River Fields-Soccer-85 ,Randall's Island Park: Sunken Garden Fields-Soccer-90 ,Randall's Island Park: Sunken Garden Fields-Soccer-91 ,Randall's Island Park: E","",N/A,"11,","25,",40.7845381,-73.93463249999999
514254,Alliance Partners Holiday Programming,11/01/2019 11:00:00 AM,12/27/2019 10:00:00 PM,Street Activity Permit Office,Plaza Partner Event,Manhattan,44/45 Broadway Pedestrian Plaza (Times Sq): 44/45 Broadway Pedestrian Plaza (Times Sq) BROADWAY between WEST   44 STREET and WEST   45 STREET,Full,Pedestrian Plaza,"5,","14,",40.7579747,-73.9855426
514612,Maraton Guadalupano,12/08/2019 12:30:00 PM,12/08/2019 03:00:00 PM,Police Department,Parade,Bronx,"664  GROTE STREET, EAST  182 STREET between CROTONA AVENUE and SOUTHERN BOULEVARD,  SOUTHERN BOULEVARD between EAST  182 STREET and MOSHOLU PARKWAY,  MOSHOLU PARKWAY between SOUTHERN BOULEVARD and VAN CORTLANDT PARK SOUTH,  VAN CORTLANDT PARK SOUTH between MOSHOLU PARKWAY and BROADWAY,  BROADWAY between VAN CORTLANDT PARK SOUTH and WEST  262 STREET,  BROADWAY between WEST  262 STREET and WEST  261 STREET","",Full Street Closure,"26, 27, 6, 7, 8,","48, 50, 52,",40.8509931,-73.886699
518518,Plaza de las Americas,12/04/2019 07:00:00 AM,12/04/2019 07:00:00 PM,Street Activity Permit Office,Miscellaneous,Manhattan,Plaza de Las Americas: Plaza de Las Americas WEST  175 STREET between BROADWAY and WADSWORTH AVENUE,Full,Pedestrian Plaza,"12,","33,",40.84609080000001,-73.9380967
519359,Brownsville Holiday Tree Lighting,12/06/2019 06:00:00 PM,12/06/2019 08:00:00 PM,Street Activity Permit Office,Plaza Partner Event,Brooklyn,Osborn Street Plaza: Osborn Street Plaza OSBORN STREET between BELMONT AVENUE and SUTTER AVENUE,Full,Pedestrian Plaza,"16,","73,",40.661308,-73.9066622
518518,Plaza de las Americas,12/26/2019 07:00:00 AM,12/26/2019 07:00:00 PM,Street Activity Permit Office,Miscellaneous,Manhattan,Plaza de Las Americas: Plaza de Las Americas WEST  175 STREET between BROADWAY and WADSWORTH AVENUE,Full,Pedestrian Plaza,"12,","33,",40.84609080000001,-73.9380967
518518,Plaza de las Americas,12/23/2019 07:00:00 AM,12/23/2019 07:00:00 PM,Street Activity Permit Office,Miscellaneous,Manhattan,Plaza de Las Americas: Plaza de Las Americas WEST  175 STREET between BROADWAY and WADSWORTH AVENUE,Full,Pedestrian Plaza,"12,","33,",40.84609080000001,-73.9380967
512150,Soccer -Regulation,12/05/2019 07:00:00 AM,12/05/2019 10:00:00 PM,Parks Department,Sport - Adult,Manhattan,"Randall's Island Park: East River Fields-Soccer-84 ,Randall's Island Park: East River Fields-Soccer-82 ,Randall's Island Park: East River Fields-Soccer-82 ,Randall's Island Park: East River Fields-Soccer-83 ,Randall's Island Park: Wards Meadow Fields-Soccer-70 ,Randall's Island Park: East River Fields-Soccer-82 ,Randall's Island Park: East River Fields-Soccer-85 ,Randall's Island Park: Sunken Garden Fields-Soccer-90 ,Randall's Island Park: Sunken Garden Fields-Soccer-91 ,Randall's Island Park: E","",N/A,"11,","25,",40.7845381,-73.93463249999999
468135,Miscellaneous,12/03/2019 07:00:00 AM,12/03/2019 03:00:00 PM,Parks Department,Special Event,Manhattan,"Booker T. Washington Playground: Soccer-01 ,Booker T. Washington Playground: Softball-01 ,Moore Playground: Softball-01 ,Playground one Twenty Five CXXV (PS 125): Softball-01 ,Holcombe Rucker Park: Softball-01 ,Tecumseh Playground: Softball-01 ,Wagner Playground: Soccer-01 ,Wagner Playground: Softball-01 ,Jacob H. Schiff Playground: Soccer-01 ,Jacob H. Schiff Playground: Softball-01 ,Peter's Field: Soccer-01 ,Peter's Field: Softball-01 ,Happy Warrior Playground: Softball-01 ,Sol Lain Plgd: Softb","",N/A,"03, 06, 07, 09, 10, 11,","13, 20, 24, 25, 26, 30, 32, 7,",40.8009054,-73.9637367
514339,Corona Plaza After School Programming By Metro World Child,12/03/2019 01:30:00 PM,12/03/2019 06:00:00 PM,Street Activity Permit Office,Plaza Event,Queens,Corona Plaza: Corona Plaza Roosevelt Avenue between National Street and 104 Street,Full,Pedestrian Plaza,"4,","110,",40.7496979,-73.86235839999999
518518,Plaza de las Americas,12/18/2019 07:00:00 AM,12/18/2019 07:00:00 PM,Street Activity Permit Office,Miscellaneous,Manhattan,Plaza de Las Americas: Plaza de Las Americas WEST  175 STREET between BROADWAY and WADSWORTH AVENUE,Full,Pedestrian Plaza,"12,","33,",40.84609080000001,-73.9380967
518518,Plaza de las Americas,12/11/2019 07:00:00 AM,12/11/2019 07:00:00 PM,Street Activity Permit Office,Miscellaneous,Manhattan,Plaza de Las Americas: Plaza de Las Americas WEST  175 STREET between BROADWAY and WADSWORTH AVENUE,Full,Pedestrian Plaza,"12,","33,",40.84609080000001,-73.9380967
518518,Plaza de las Americas,12/27/2019 07:00:00 AM,12/27/2019 07:00:00 PM,Street Activity Permit Office,Miscellaneous,Manhattan,Plaza de Las Americas: Plaza de Las Americas WEST  175 STREET between BROADWAY and WADSWORTH AVENUE,Full,Pedestrian Plaza,"12,","33,",40.84609080000001,-73.9380967
518606,Puerto Rican Day Parade 2020,06/14/2020 01:00:00 AM,06/14/2020 05:00:00 PM,Parks Department,Special Event,Manhattan,"Central Park: East Drive   ,Central Park: Cedar Hill   ,Central Park: Lawn Behind the Met Museum   ,Central Park: Arsenal Plaza ,Central Park: Front of Arsenal ,Central Park: Kerbs Boathouse   ,Central Park: Lawn North of Levin Playground ,Central Park: Lawn Outside Levin Playground (Section A) ,Central Park: Arsenal   ,Central Park: Lawn Outside Levin Playground (Section B) ,Central Park: East 72nd Street Playground Lawns ,Central Park: Pilgrim Hill ,Central Park: Hans Christian Anderson Statue","",N/A,"5, 64, 8,","18, 19, 22,",40.7814407,-73.9665239
466819,Fall project,12/04/2019 12:01:00 AM,12/04/2019 08:00:00 AM,Street Activity Permit Office,Plaza Partner Event,Manhattan,"46/47 Broadway Pedestrian Plaza (Times Sq): 46/47 Broadway Pedestrian Plaza (Times Sq) BROADWAY between WEST   46 STREET and WEST   47 STREET,  WEST   46 STREET between 7 AVENUE and 8 AVENUE",Full,Pedestrian Plaza,"4, 5,","18,",40.7579747,-73.9855426
458022,Permitted Film Event,01/07/2019 12:01:00 AM,12/31/2019 07:00:00 PM,"Mayor's Office of Film, Theatre & Broadcasting",Shooting Permit,Manhattan,"1697 BROADWAY, WEST   53 STREET between BROADWAY and 8 AVENUE,  BROADWAY between WEST   53 STREET and WEST   54 STREET","",N/A,"5,","18,",40.7644077,-73.9856685
520379,NY4HK - New Yorkers Support Hong Kong,12/08/2019 01:30:00 PM,12/08/2019 03:00:00 PM,Street Activity Permit Office,Rally,Manhattan,Louise Nevelson Plaza: Louise Nevelson Plaza WILLIAM STREET between LIBERTY STREET and MAIDEN LANE,Full,Pedestrian Plaza,"1,","1,",40.7076284,-74.0079322
518518,Plaza de las Americas,12/06/2019 07:00:00 AM,12/06/2019 07:00:00 PM,Street Activity Permit Office,Miscellaneous,Manhattan,Plaza de Las Americas: Plaza de Las Americas WEST  175 STREET between BROADWAY and WADSWORTH AVENUE,Full,Pedestrian Plaza,"12,","33,",40.84609080000001,-73.9380967
517560,2019 Winterfest Celebration,12/08/2019 05:00:00 PM,12/08/2019 08:00:00 PM,Street Activity Permit Office,Plaza Partner Event,Bronx,Roberto Clemente Plaza: Roberto Clemente Plaza 3 AVENUE between EAST  148 STREET and WILLIS AVENUE,Full,Pedestrian Plaza,"1,","40,",40.8155905,-73.91751959999999
514339,Corona Plaza After School Programming By Metro World Child,12/31/2019 01:30:00 PM,12/31/2019 06:00:00 PM,Street Activity Permit Office,Plaza Event,Queens,Corona Plaza: Corona Plaza Roosevelt Avenue between National Street and 104 Street,Full,Pedestrian Plaza,"4,","110,",40.7496979,-73.86235839999999
509053,Permitted Film Event,11/27/2019 12:01:00 AM,12/11/2019 11:59:00 PM,"Mayor's Office of Film, Theatre & Broadcasting",Theater Load in and Load Outs,Manhattan,"155 WEST   62 STREET, WEST   62 STREET between AMSTERDAM AVENUE and COLUMBUS AVENUE,  AMSTERDAM AVENUE between WEST   61 STREET and WEST   64 STREET,  AMSTERDAM AVENUE between WEST   62 STREET and WEST   64 STREET","",N/A,"7,","20,",40.7721446,-73.98473919999999
459868,Bronx Night Market,12/08/2019 01:00:00 PM,12/08/2019 10:30:00 PM,Street Activity Permit Office,Plaza Event,Bronx,Fordham Plaza: Fordham Plaza EAST FORDHAM ROAD between WEBSTER AVENUE and FIREFIGHTERS BOULEVARD,Full,Pedestrian Plaza,"6,","48,",40.861595,-73.89106799999999
512150,Soccer -Regulation,12/18/2019 07:00:00 AM,12/18/2019 10:00:00 PM,Parks Department,Sport - Adult,Manhattan,"Randall's Island Park: East River Fields-Soccer-84 ,Randall's Island Park: East River Fields-Soccer-82 ,Randall's Island Park: East River Fields-Soccer-82 ,Randall's Island Park: East River Fields-Soccer-83 ,Randall's Island Park: Wards Meadow Fields-Soccer-70 ,Randall's Island Park: East River Fields-Soccer-82 ,Randall's Island Park: East River Fields-Soccer-85 ,Randall's Island Park: Sunken Garden Fields-Soccer-90 ,Randall's Island Park: Sunken Garden Fields-Soccer-91 ,Randall's Island Park: E","",N/A,"11,","25,",40.7845381,-73.93463249999999
514339,Corona Plaza After School Programming By Metro World Child,12/10/2019 01:30:00 PM,12/10/2019 06:00:00 PM,Street Activity Permit Office,Plaza Event,Queens,Corona Plaza: Corona Plaza Roosevelt Avenue between National Street and 104 Street,Full,Pedestrian Plaza,"4,","110,",40.7496979,-73.86235839999999
518518,Plaza de las Americas,12/05/2019 07:00:00 AM,12/05/2019 07:00:00 PM,Street Activity Permit Office,Miscellaneous,Manhattan,Plaza de Las Americas: Plaza de Las Americas WEST  175 STREET between BROADWAY and WADSWORTH AVENUE,Full,Pedestrian Plaza,"12,","33,",40.84609080000001,-73.9380967
459868,Bronx Night Market,12/14/2019 01:00:00 PM,12/14/2019 10:30:00 PM,Street Activity Permit Office,Plaza Event,Bronx,Fordham Plaza: Fordham Plaza EAST FORDHAM ROAD between WEBSTER AVENUE and FIREFIGHTERS BOULEVARD,Full,Pedestrian Plaza,"6,","48,",40.861595,-73.89106799999999
512150,Soccer -Regulation,12/08/2019 07:00:00 AM,12/08/2019 10:00:00 PM,Parks Department,Sport - Adult,Manhattan,"Randall's Island Park: East River Fields-Soccer-84 ,Randall's Island Park: East River Fields-Soccer-82 ,Randall's Island Park: East River Fields-Soccer-82 ,Randall's Island Park: East River Fields-Soccer-83 ,Randall's Island Park: Wards Meadow Fields-Soccer-70 ,Randall's Island Park: East River Fields-Soccer-82 ,Randall's Island Park: East River Fields-Soccer-85 ,Randall's Island Park: Sunken Garden Fields-Soccer-90 ,Randall's Island Park: Sunken Garden Fields-Soccer-91 ,Randall's Island Park: E","",N/A,"11,","25,",40.7845381,-73.93463249999999
516693,Queens Menorah Parade,12/22/2019 05:00:00 PM,12/22/2019 06:00:00 PM,Police Department,Parade,Queens,"9215 69 AVENUE, 69 AVENUE between LOUBET STREET and BURNS STREET,  BURNS STREET between 69 AVENUE and YELLOWSTONE BOULEVARD,  YELLOWSTONE BOULEVARD between BURNS STREET and WOODHAVEN BOULEVARD,  WOODHAVEN BOULEVARD between YELLOWSTONE BOULEVARD and 63 DRIVE,  63RD DRIVE between WOODHAVEN BOULEVARD and 108 STREET,  108 STREET between 63 ROAD and JEWEL AVENUE,  JEWEL AVENUE between 108 STREET and MAIN STREET,  MAIN STREET between JEWEL AVENUE and UNION TURNPIKE,  QUEENS BOULEVARD between 102 STREE","",Full Street Closure,"5, 6, 8, 81, 9,","102, 104, 107, 110, 112,",40.7134558,-73.8517085
468135,Miscellaneous,12/17/2019 07:00:00 AM,12/17/2019 03:00:00 PM,Parks Department,Special Event,Manhattan,"Booker T. Washington Playground: Soccer-01 ,Booker T. Washington Playground: Softball-01 ,Moore Playground: Softball-01 ,Playground one Twenty Five CXXV (PS 125): Softball-01 ,Holcombe Rucker Park: Softball-01 ,Tecumseh Playground: Softball-01 ,Wagner Playground: Soccer-01 ,Wagner Playground: Softball-01 ,Jacob H. Schiff Playground: Soccer-01 ,Jacob H. Schiff Playground: Softball-01 ,Peter's Field: Soccer-01 ,Peter's Field: Softball-01 ,Happy Warrior Playground: Softball-01 ,Sol Lain Plgd: Softb","",N/A,"03, 06, 07, 09, 10, 11,","13, 20, 24, 25, 26, 30, 32, 7,",40.8009054,-73.9637367
512150,Soccer -Regulation,12/21/2019 07:00:00 AM,12/21/2019 10:00:00 PM,Parks Department,Sport - Adult,Manhattan,"Randall's Island Park: East River Fields-Soccer-84 ,Randall's Island Park: East River Fields-Soccer-82 ,Randall's Island Park: East River Fields-Soccer-82 ,Randall's Island Park: East River Fields-Soccer-83 ,Randall's Island Park: Wards Meadow Fields-Soccer-70 ,Randall's Island Park: East River Fields-Soccer-82 ,Randall's Island Park: East River Fields-Soccer-85 ,Randall's Island Park: Sunken Garden Fields-Soccer-90 ,Randall's Island Park: Sunken Garden Fields-Soccer-91 ,Randall's Island Park: E","",N/A,"11,","25,",40.7845381,-73.93463249999999
516735,Permitted Film Event,11/19/2019 07:00:00 AM,12/19/2019 07:00:00 PM,"Mayor's Office of Film, Theatre & Broadcasting",Theater Load in and Load Outs,Manhattan,151 WEST   26 STREET between 7 AVENUE and 6 AVENUE,"",N/A,"4, 5,","13,",40.7457892,-73.9931495
512150,Soccer -Regulation,12/03/2019 07:00:00 AM,12/03/2019 10:00:00 PM,Parks Department,Sport - Adult,Manhattan,"Randall's Island Park: East River Fields-Soccer-84 ,Randall's Island Park: East River Fields-Soccer-82 ,Randall's Island Park: East River Fields-Soccer-82 ,Randall's Island Park: East River Fields-Soccer-83 ,Randall's Island Park: Wards Meadow Fields-Soccer-70 ,Randall's Island Park: East River Fields-Soccer-82 ,Randall's Island Park: East River Fields-Soccer-85 ,Randall's Island Park: Sunken Garden Fields-Soccer-90 ,Randall's Island Park: Sunken Garden Fields-Soccer-91 ,Randall's Island Park: E","",N/A,"11,","25,",40.7845381,-73.93463249999999
468135,Miscellaneous,12/30/2019 07:00:00 AM,12/30/2019 03:00:00 PM,Parks Department,Special Event,Manhattan,"Booker T. Washington Playground: Soccer-01 ,Booker T. Washington Playground: Softball-01 ,Moore Playground: Softball-01 ,Playground one Twenty Five CXXV (PS 125): Softball-01 ,Holcombe Rucker Park: Softball-01 ,Tecumseh Playground: Softball-01 ,Wagner Playground: Soccer-01 ,Wagner Playground: Softball-01 ,Jacob H. Schiff Playground: Soccer-01 ,Jacob H. Schiff Playground: Softball-01 ,Peter's Field: Soccer-01 ,Peter's Field: Softball-01 ,Happy Warrior Playground: Softball-01 ,Sol Lain Plgd: Softb","",N/A,"03, 06, 07, 09, 10, 11,","13, 20, 24, 25, 26, 30, 32, 7,",40.8009054,-73.9637367
468135,Miscellaneous,12/24/2019 07:00:00 AM,12/24/2019 03:00:00 PM,Parks Department,Special Event,Manhattan,"Booker T. Washington Playground: Soccer-01 ,Booker T. Washington Playground: Softball-01 ,Moore Playground: Softball-01 ,Playground one Twenty Five CXXV (PS 125): Softball-01 ,Holcombe Rucker Park: Softball-01 ,Tecumseh Playground: Softball-01 ,Wagner Playground: Soccer-01 ,Wagner Playground: Softball-01 ,Jacob H. Schiff Playground: Soccer-01 ,Jacob H. Schiff Playground: Softball-01 ,Peter's Field: Soccer-01 ,Peter's Field: Softball-01 ,Happy Warrior Playground: Softball-01 ,Sol Lain Plgd: Softb","",N/A,"03, 06, 07, 09, 10, 11,","13, 20, 24, 25, 26, 30, 32, 7,",40.8009054,-73.9637367
468135,Miscellaneous,12/20/2019 07:00:00 AM,12/20/2019 03:00:00 PM,Parks Department,Special Event,Manhattan,"Booker T. Washington Playground: Soccer-01 ,Booker T. Washington Playground: Softball-01 ,Moore Playground: Softball-01 ,Playground one Twenty Five CXXV (PS 125): Softball-01 ,Holcombe Rucker Park: Softball-01 ,Tecumseh Playground: Softball-01 ,Wagner Playground: Soccer-01 ,Wagner Playground: Softball-01 ,Jacob H. Schiff Playground: Soccer-01 ,Jacob H. Schiff Playground: Softball-01 ,Peter's Field: Soccer-01 ,Peter's Field: Softball-01 ,Happy Warrior Playground: Softball-01 ,Sol Lain Plgd: Softb","",N/A,"03, 06, 07, 09, 10, 11,","13, 20, 24, 25, 26, 30, 32, 7,",40.8009054,-73.9637367
459868,Bronx Night Market,12/21/2019 01:00:00 PM,12/21/2019 10:30:00 PM,Street Activity Permit Office,Plaza Event,Bronx,Fordham Plaza: Fordham Plaza EAST FORDHAM ROAD between WEBSTER AVENUE and FIREFIGHTERS BOULEVARD,Full,Pedestrian Plaza,"6,","48,",40.861595,-73.89106799999999
518518,Plaza de las Americas,12/12/2019 07:00:00 AM,12/12/2019 07:00:00 PM,Street Activity Permit Office,Miscellaneous,Manhattan,Plaza de Las Americas: Plaza de Las Americas WEST  175 STREET between BROADWAY and WADSWORTH AVENUE,Full,Pedestrian Plaza,"12,","33,",40.84609080000001,-73.9380967
468135,Miscellaneous,12/10/2019 07:00:00 AM,12/10/2019 03:00:00 PM,Parks Department,Special Event,Manhattan,"Booker T. Washington Playground: Soccer-01 ,Booker T. Washington Playground: Softball-01 ,Moore Playground: Softball-01 ,Playground one Twenty Five CXXV (PS 125): Softball-01 ,Holcombe Rucker Park: Softball-01 ,Tecumseh Playground: Softball-01 ,Wagner Playground: Soccer-01 ,Wagner Playground: Softball-01 ,Jacob H. Schiff Playground: Soccer-01 ,Jacob H. Schiff Playground: Softball-01 ,Peter's Field: Soccer-01 ,Peter's Field: Softball-01 ,Happy Warrior Playground: Softball-01 ,Sol Lain Plgd: Softb","",N/A,"03, 06, 07, 09, 10, 11,","13, 20, 24, 25, 26, 30, 32, 7,",40.8009054,-73.9637367
518518,Plaza de las Americas,12/03/2019 07:00:00 AM,12/03/2019 07:00:00 PM,Street Activity Permit Office,Miscellaneous,Manhattan,Plaza de Las Americas: Plaza de Las Americas WEST  175 STREET between BROADWAY and WADSWORTH AVENUE,Full,Pedestrian Plaza,"12,","33,",40.84609080000001,-73.9380967
518518,Plaza de las Americas,12/25/2019 07:00:00 AM,12/25/2019 07:00:00 PM,Street Activity Permit Office,Miscellaneous,Manhattan,Plaza de Las Americas: Plaza de Las Americas WEST  175 STREET between BROADWAY and WADSWORTH AVENUE,Full,Pedestrian Plaza,"12,","33,",40.84609080000001,-73.9380967
519641,Virgen de la Nube Procession,01/01/2020 01:15:00 PM,01/01/2020 02:30:00 PM,Police Department,Parade,Bronx,"1372 STRATFORD AVENUE, EAST  174 STREET between STRATFORD AVENUE and MORRISON AVENUE,  MORRISON AVENUE between EAST  174 STREET and WATSON AVENUE,  WATSON AVENUE between MORRISON AVENUE and ELDER AVENUE,  ELDER AVENUE between WATSON AVENUE and EAST  172 STREET,  EAST  172 STREET between ELDER AVENUE and STRATFORD AVENUE,  STRATFORD AVENUE between EAST  172 STREET and EAST  174 STREET, 1372 STRATFORD AVENUE","",Full Street Closure,"9,","43,",40.8332948,-73.876145
511149,Antorcha Guadalupana 2019,12/08/2019 08:00:00 AM,12/08/2019 01:00:00 PM,Police Department,Athletic Race / Tour,Manhattan,"328 West WEST   14 STREET, WEST   14 STREET between 8 AVENUE and 5 AVENUE,  1 AVENUE between EAST   14 STREET and EAST   59 STREET,  FIRST AVENUE between EAST   59 STREET and EAST  125 STREET","",Full Street Closure,"11, 2, 4, 5, 6, 8,","10, 13, 17, 19, 23, 25, 6,",40.7313474,-73.9825664
518518,Plaza de las Americas,12/30/2019 07:00:00 AM,12/30/2019 07:00:00 PM,Street Activity Permit Office,Miscellaneous,Manhattan,Plaza de Las Americas: Plaza de Las Americas WEST  175 STREET between BROADWAY and WADSWORTH AVENUE,Full,Pedestrian Plaza,"12,","33,",40.84609080000001,-73.9380967
466819,Fall project,12/06/2019 12:01:00 AM,12/06/2019 08:00:00 AM,Street Activity Permit Office,Plaza Partner Event,Manhattan,"46/47 Broadway Pedestrian Plaza (Times Sq): 46/47 Broadway Pedestrian Plaza (Times Sq) BROADWAY between WEST   46 STREET and WEST   47 STREET,  WEST   46 STREET between 7 AVENUE and 8 AVENUE",Full,Pedestrian Plaza,"4, 5,","18,",40.7579747,-73.9855426
520060,Permitted Film Event,11/27/2019 06:00:00 AM,12/20/2019 06:00:00 PM,"Mayor's Office of Film, Theatre & Broadcasting",Theater Load in and Load Outs,Manhattan,504 WEST   53 STREET between 10 AVENUE and 11 AVENUE,"",N/A,"4,","18,",40.76682599999999,-73.9912776
518518,Plaza de las Americas,12/19/2019 07:00:00 AM,12/19/2019 07:00:00 PM,Street Activity Permit Office,Miscellaneous,Manhattan,Plaza de Las Americas: Plaza de Las Americas WEST  175 STREET between BROADWAY and WADSWORTH AVENUE,Full,Pedestrian Plaza,"12,","33,",40.84609080000001,-73.9380967
519669,Rally for Good Jobs,12/05/2019 05:30:00 PM,12/05/2019 06:30:00 PM,Street Activity Permit Office,Rally,Manhattan,Pershing Square Plaza: Pershing Square Plaza PARK AVENUE between EAST   41 STREET and EAST   42 STREET,Full,Pedestrian Plaza,"5,","14,",40.752023,-73.97775399999999
518386,Permitted Film Event,11/23/2019 07:00:00 AM,12/06/2019 06:00:00 AM,"Mayor's Office of Film, Theatre & Broadcasting",Theater Load in and Load Outs,Manhattan,"Beacon Theatre: 2124 Broadway , AMSTERDAM AVENUE between WEST   73 STREET and WEST   75 STREET,  BROADWAY between WEST   74 STREET and WEST   75 STREET,  WEST   75 STREET between AMSTERDAM AVENUE and BROADWAY","",N/A,"7,","20,",40.7805136,-73.9810847
518518,Plaza de las Americas,12/20/2019 07:00:00 AM,12/20/2019 07:00:00 PM,Street Activity Permit Office,Miscellaneous,Manhattan,Plaza de Las Americas: Plaza de Las Americas WEST  175 STREET between BROADWAY and WADSWORTH AVENUE,Full,Pedestrian Plaza,"12,","33,",40.84609080000001,-73.9380967
518518,Plaza de las Americas,12/13/2019 07:00:00 AM,12/13/2019 07:00:00 PM,Street Activity Permit Office,Miscellaneous,Manhattan,Plaza de Las Americas: Plaza de Las Americas WEST  175 STREET between BROADWAY and WADSWORTH AVENUE,Full,Pedestrian Plaza,"12,","33,",40.84609080000001,-73.9380967
512150,Soccer -Regulation,12/12/2019 07:00:00 AM,12/12/2019 10:00:00 PM,Parks Department,Sport - Adult,Manhattan,"Randall's Island Park: East River Fields-Soccer-84 ,Randall's Island Park: East River Fields-Soccer-82 ,Randall's Island Park: East River Fields-Soccer-82 ,Randall's Island Park: East River Fields-Soccer-83 ,Randall's Island Park: Wards Meadow Fields-Soccer-70 ,Randall's Island Park: East River Fields-Soccer-82 ,Randall's Island Park: East River Fields-Soccer-85 ,Randall's Island Park: Sunken Garden Fields-Soccer-90 ,Randall's Island Park: Sunken Garden Fields-Soccer-91 ,Randall's Island Park: E","",N/A,"11,","25,",40.7845381,-73.93463249999999
514339,Corona Plaza After School Programming By Metro World Child,12/17/2019 01:30:00 PM,12/17/2019 06:00:00 PM,Street Activity Permit Office,Plaza Event,Queens,Corona Plaza: Corona Plaza Roosevelt Avenue between National Street and 104 Street,Full,Pedestrian Plaza,"4,","110,",40.7496979,-73.86235839999999
459868,Bronx Night Market,12/07/2019 01:00:00 PM,12/07/2019 10:30:00 PM,Street Activity Permit Office,Plaza Event,Bronx,Fordham Plaza: Fordham Plaza EAST FORDHAM ROAD between WEBSTER AVENUE and FIREFIGHTERS BOULEVARD,Full,Pedestrian Plaza,"6,","48,",40.861595,-73.89106799999999
512150,Soccer -Regulation,12/07/2019 07:00:00 AM,12/07/2019 10:00:00 PM,Parks Department,Sport - Adult,Manhattan,"Randall's Island Park: East River Fields-Soccer-84 ,Randall's Island Park: East River Fields-Soccer-82 ,Randall's Island Park: East River Fields-Soccer-82 ,Randall's Island Park: East River Fields-Soccer-83 ,Randall's Island Park: Wards Meadow Fields-Soccer-70 ,Randall's Island Park: East River Fields-Soccer-82 ,Randall's Island Park: East River Fields-Soccer-85 ,Randall's Island Park: Sunken Garden Fields-Soccer-90 ,Randall's Island Park: Sunken Garden Fields-Soccer-91 ,Randall's Island Park: E","",N/A,"11,","25,",40.7845381,-73.93463249999999
515980,The Time Shop,12/03/2019 08:00:00 AM,12/17/2019 08:00:00 PM,Street Activity Permit Office,Production Event,Manhattan,105 WOOSTER STREET between PRINCE STREET and SPRING STREET,West,Partial Sidewalk Closure,"2,","1,",40.7248438,-74.0009484
468135,Miscellaneous,12/27/2019 07:00:00 AM,12/27/2019 03:00:00 PM,Parks Department,Special Event,Manhattan,"Booker T. Washington Playground: Soccer-01 ,Booker T. Washington Playground: Softball-01 ,Moore Playground: Softball-01 ,Playground one Twenty Five CXXV (PS 125): Softball-01 ,Holcombe Rucker Park: Softball-01 ,Tecumseh Playground: Softball-01 ,Wagner Playground: Soccer-01 ,Wagner Playground: Softball-01 ,Jacob H. Schiff Playground: Soccer-01 ,Jacob H. Schiff Playground: Softball-01 ,Peter's Field: Soccer-01 ,Peter's Field: Softball-01 ,Happy Warrior Playground: Softball-01 ,Sol Lain Plgd: Softb","",N/A,"03, 06, 07, 09, 10, 11,","13, 20, 24, 25, 26, 30, 32, 7,",40.8009054,-73.9637367
466819,Fall project,12/03/2019 12:01:00 AM,12/03/2019 08:00:00 AM,Street Activity Permit Office,Plaza Partner Event,Manhattan,"46/47 Broadway Pedestrian Plaza (Times Sq): 46/47 Broadway Pedestrian Plaza (Times Sq) BROADWAY between WEST   46 STREET and WEST   47 STREET,  WEST   46 STREET between 7 AVENUE and 8 AVENUE",Full,Pedestrian Plaza,"4, 5,","18,",40.7579747,-73.9855426
519004,Holiday Event,12/05/2019 05:30:00 PM,12/05/2019 08:30:00 PM,Street Activity Permit Office,Production Event,Manhattan,798  MADISON AVENUE between EAST   67 STREET and EAST   68 STREET,West,Curb Lane Only,"8,","19,",40.7688815,-73.9677432
512150,Soccer -Regulation,12/11/2019 07:00:00 AM,12/11/2019 10:00:00 PM,Parks Department,Sport - Adult,Manhattan,"Randall's Island Park: East River Fields-Soccer-84 ,Randall's Island Park: East River Fields-Soccer-82 ,Randall's Island Park: East River Fields-Soccer-82 ,Randall's Island Park: East River Fields-Soccer-83 ,Randall's Island Park: Wards Meadow Fields-Soccer-70 ,Randall's Island Park: East River Fields-Soccer-82 ,Randall's Island Park: East River Fields-Soccer-85 ,Randall's Island Park: Sunken Garden Fields-Soccer-90 ,Randall's Island Park: Sunken Garden Fields-Soccer-91 ,Randall's Island Park: E","",N/A,"11,","25,",40.7845381,-73.93463249999999
518518,Plaza de las Americas,12/10/2019 07:00:00 AM,12/10/2019 07:00:00 PM,Street Activity Permit Office,Miscellaneous,Manhattan,Plaza de Las Americas: Plaza de Las Americas WEST  175 STREET between BROADWAY and WADSWORTH AVENUE,Full,Pedestrian Plaza,"12,","33,",40.84609080000001,-73.9380967
519634,Feast of the Guadalupe,12/08/2019 08:00:00 AM,12/08/2019 11:30:00 AM,Police Department,Parade,Manhattan,"330 WEST   14 STREET,330 10 AVENUE,207 WEST   96 STREET, 10 AVENUE between WEST   14 STREET and AMSTERDAM AVENUE,  AMSTERDAM AVENUE between WEST   59 STREET and WEST   96 STREET,  WEST   14 STREET between HUDSON STREET and 10 AVENUE","",Full Street Closure,"2, 4, 7,","10, 18, 20, 24, 6,",40.7313474,-73.9825664
468135,Miscellaneous,12/19/2019 07:00:00 AM,12/19/2019 03:00:00 PM,Parks Department,Special Event,Manhattan,"Booker T. Washington Playground: Soccer-01 ,Booker T. Washington Playground: Softball-01 ,Moore Playground: Softball-01 ,Playground one Twenty Five CXXV (PS 125): Softball-01 ,Holcombe Rucker Park: Softball-01 ,Tecumseh Playground: Softball-01 ,Wagner Playground: Soccer-01 ,Wagner Playground: Softball-01 ,Jacob H. Schiff Playground: Soccer-01 ,Jacob H. Schiff Playground: Softball-01 ,Peter's Field: Soccer-01 ,Peter's Field: Softball-01 ,Happy Warrior Playground: Softball-01 ,Sol Lain Plgd: Softb","",N/A,"03, 06, 07, 09, 10, 11,","13, 20, 24, 25, 26, 30, 32, 7,",40.8009054,-73.9637367
519638,Our Lady of Guadalupe Procession,12/12/2019 06:00:00 PM,12/12/2019 07:30:00 PM,Police Department,Parade,Bronx,"1148 BOYNTON AVENUE, BOYNTON AVENUE between WESTCHESTER AVENUE and WATSON AVENUE,  WATSON AVENUE between BOYNTON AVENUE and ELDER AVENUE,  ELDER AVENUE between WATSON AVENUE and EAST  172 STREET,  EAST  172 STREET between ELDER AVENUE and STRATFORD AVENUE,  STRATFORD AVENUE between EAST  172 STREET and EAST  174 STREET,  STRATFORD AVENUE between EAST  172 STREET and EAST  174 STREET","",Full Street Closure,"9,","43,",40.82756699999999,-73.87769399999999
519749,Permitted Film Event,11/25/2019 12:01:00 AM,12/15/2019 06:00:00 AM,"Mayor's Office of Film, Theatre & Broadcasting",Theater Load in and Load Outs,Manhattan,"360 10 AVENUE, WEST   31 STREET between 9 AVENUE and 10 AVENUE","",N/A,"4,","10,",40.8134463,-73.9562105
468135,Miscellaneous,12/06/2019 07:00:00 AM,12/06/2019 03:00:00 PM,Parks Department,Special Event,Manhattan,"Booker T. Washington Playground: Soccer-01 ,Booker T. Washington Playground: Softball-01 ,Moore Playground: Softball-01 ,Playground one Twenty Five CXXV (PS 125): Softball-01 ,Holcombe Rucker Park: Softball-01 ,Tecumseh Playground: Softball-01 ,Wagner Playground: Soccer-01 ,Wagner Playground: Softball-01 ,Jacob H. Schiff Playground: Soccer-01 ,Jacob H. Schiff Playground: Softball-01 ,Peter's Field: Soccer-01 ,Peter's Field: Softball-01 ,Happy Warrior Playground: Softball-01 ,Sol Lain Plgd: Softb","",N/A,"03, 06, 07, 09, 10, 11,","13, 20, 24, 25, 26, 30, 32, 7,",40.8009054,-73.9637367
518518,Plaza de las Americas,12/16/2019 07:00:00 AM,12/16/2019 07:00:00 PM,Street Activity Permit Office,Miscellaneous,Manhattan,Plaza de Las Americas: Plaza de Las Americas WEST  175 STREET between BROADWAY and WADSWORTH AVENUE,Full,Pedestrian Plaza,"12,","33,",40.84609080000001,-73.9380967
497399,Dumbo Holiday Tree Lighting,12/05/2019 04:00:00 PM,12/05/2019 07:00:00 PM,Street Activity Permit Office,Plaza Partner Event,Brooklyn,Pearl Plaza: Pearl Plaza Pearl Street between Water Street and Anchorage Place,Full,Pedestrian Plaza,"2,","84,",40.7029874,-73.9877319
514339,Corona Plaza After School Programming By Metro World Child,12/24/2019 01:30:00 PM,12/24/2019 06:00:00 PM,Street Activity Permit Office,Plaza Event,Queens,Corona Plaza: Corona Plaza Roosevelt Avenue between National Street and 104 Street,Full,Pedestrian Plaza,"4,","110,",40.7496979,-73.86235839999999
459868,Bronx Night Market,12/15/2019 01:00:00 PM,12/15/2019 10:30:00 PM,Street Activity Permit Office,Plaza Event,Bronx,Fordham Plaza: Fordham Plaza EAST FORDHAM ROAD between WEBSTER AVENUE and FIREFIGHTERS BOULEVARD,Full,Pedestrian Plaza,"6,","48,",40.861595,-73.89106799999999
512150,Soccer -Regulation,12/13/2019 07:00:00 AM,12/13/2019 10:00:00 PM,Parks Department,Sport - Adult,Manhattan,"Randall's Island Park: East River Fields-Soccer-84 ,Randall's Island Park: East River Fields-Soccer-82 ,Randall's Island Park: East River Fields-Soccer-82 ,Randall's Island Park: East River Fields-Soccer-83 ,Randall's Island Park: Wards Meadow Fields-Soccer-70 ,Randall's Island Park: East River Fields-Soccer-82 ,Randall's Island Park: East River Fields-Soccer-85 ,Randall's Island Park: Sunken Garden Fields-Soccer-90 ,Randall's Island Park: Sunken Garden Fields-Soccer-91 ,Randall's Island Park: E","",N/A,"11,","25,",40.7845381,-73.93463249999999
512150,Soccer -Regulation,12/19/2019 07:00:00 AM,12/19/2019 10:00:00 PM,Parks Department,Sport - Adult,Manhattan,"Randall's Island Park: East River Fields-Soccer-84 ,Randall's Island Park: East River Fields-Soccer-82 ,Randall's Island Park: East River Fields-Soccer-82 ,Randall's Island Park: East River Fields-Soccer-83 ,Randall's Island Park: Wards Meadow Fields-Soccer-70 ,Randall's Island Park: East River Fields-Soccer-82 ,Randall's Island Park: East River Fields-Soccer-85 ,Randall's Island Park: Sunken Garden Fields-Soccer-90 ,Randall's Island Park: Sunken Garden Fields-Soccer-91 ,Randall's Island Park: E","",N/A,"11,","25,",40.7845381,-73.93463249999999
468135,Miscellaneous,12/12/2019 07:00:00 AM,12/12/2019 03:00:00 PM,Parks Department,Special Event,Manhattan,"Booker T. Washington Playground: Soccer-01 ,Booker T. Washington Playground: Softball-01 ,Moore Playground: Softball-01 ,Playground one Twenty Five CXXV (PS 125): Softball-01 ,Holcombe Rucker Park: Softball-01 ,Tecumseh Playground: Softball-01 ,Wagner Playground: Soccer-01 ,Wagner Playground: Softball-01 ,Jacob H. Schiff Playground: Soccer-01 ,Jacob H. Schiff Playground: Softball-01 ,Peter's Field: Soccer-01 ,Peter's Field: Softball-01 ,Happy Warrior Playground: Softball-01 ,Sol Lain Plgd: Softb","",N/A,"03, 06, 07, 09, 10, 11,","13, 20, 24, 25, 26, 30, 32, 7,",40.8009054,-73.9637367
512348,2019 Welcome Santa to Woodhaven,12/07/2019 12:00:00 PM,12/07/2019 03:30:00 PM,Police Department,Parade,Queens,"96-01 JAMAICA AVENUE, JAMAICA AVENUE between 96 STREET and DEXTER COURT,  DEXTER COURT between JAMAICA AVENUE and 86 ROAD","",Full Street Closure,"9,","102,",40.6946479,-73.8489822
519216,Marathon Guadalupano,12/14/2019 08:00:00 AM,12/14/2019 10:00:00 AM,Police Department,Athletic Race / Tour,Manhattan,"229 WEST   14 STREET, EAST   14 STREET between 5 AVENUE and 2 AVENUE,  CHRYSTIE STREET between 2 AVENUE and DELANCEY STREET,  DELANCEY STREET between CHRYSTIE STREET and CLINTON STREET, Williamsburg Bridge Brooklyn: Williamsburg Bridge Brooklyn , HOOPER STREET between BROADWAY and MARCY AVENUE, 263 MARCY AVENUE, BROADWAY between HAVEMEYER STREET and HOOPER STREET,  2 AVENUE between EAST   14 STREET and EAST HOUSTON STREET,  WEST   14 STREET between 7 AVENUE and 5 AVENUE",Full,Full Street Closure,"1, 2, 3, 4, 5, 6,","10, 13, 5, 6, 7, 9, 90,",40.7329747,-73.9858266
468135,Miscellaneous,12/31/2019 07:00:00 AM,12/31/2019 03:00:00 PM,Parks Department,Special Event,Manhattan,"Booker T. Washington Playground: Soccer-01 ,Booker T. Washington Playground: Softball-01 ,Moore Playground: Softball-01 ,Playground one Twenty Five CXXV (PS 125): Softball-01 ,Holcombe Rucker Park: Softball-01 ,Tecumseh Playground: Softball-01 ,Wagner Playground: Soccer-01 ,Wagner Playground: Softball-01 ,Jacob H. Schiff Playground: Soccer-01 ,Jacob H. Schiff Playground: Softball-01 ,Peter's Field: Soccer-01 ,Peter's Field: Softball-01 ,Happy Warrior Playground: Softball-01 ,Sol Lain Plgd: Softb","",N/A,"03, 06, 07, 09, 10, 11,","13, 20, 24, 25, 26, 30, 32, 7,",40.8009054,-73.9637367
512150,Soccer -Regulation,12/10/2019 07:00:00 AM,12/10/2019 10:00:00 PM,Parks Department,Sport - Adult,Manhattan,"Randall's Island Park: East River Fields-Soccer-84 ,Randall's Island Park: East River Fields-Soccer-82 ,Randall's Island Park: East River Fields-Soccer-82 ,Randall's Island Park: East River Fields-Soccer-83 ,Randall's Island Park: Wards Meadow Fields-Soccer-70 ,Randall's Island Park: East River Fields-Soccer-82 ,Randall's Island Park: East River Fields-Soccer-85 ,Randall's Island Park: Sunken Garden Fields-Soccer-90 ,Randall's Island Park: Sunken Garden Fields-Soccer-91 ,Randall's Island Park: E","",N/A,"11,","25,",40.7845381,-73.93463249999999
468135,Miscellaneous,12/23/2019 07:00:00 AM,12/23/2019 03:00:00 PM,Parks Department,Special Event,Manhattan,"Booker T. Washington Playground: Soccer-01 ,Booker T. Washington Playground: Softball-01 ,Moore Playground: Softball-01 ,Playground one Twenty Five CXXV (PS 125): Softball-01 ,Holcombe Rucker Park: Softball-01 ,Tecumseh Playground: Softball-01 ,Wagner Playground: Soccer-01 ,Wagner Playground: Softball-01 ,Jacob H. Schiff Playground: Soccer-01 ,Jacob H. Schiff Playground: Softball-01 ,Peter's Field: Soccer-01 ,Peter's Field: Softball-01 ,Happy Warrior Playground: Softball-01 ,Sol Lain Plgd: Softb","",N/A,"03, 06, 07, 09, 10, 11,","13, 20, 24, 25, 26, 30, 32, 7,",40.8009054,-73.9637367
512150,Soccer -Regulation,12/04/2019 07:00:00 AM,12/04/2019 10:00:00 PM,Parks Department,Sport - Adult,Manhattan,"Randall's Island Park: East River Fields-Soccer-84 ,Randall's Island Park: East River Fields-Soccer-82 ,Randall's Island Park: East River Fields-Soccer-82 ,Randall's Island Park: East River Fields-Soccer-83 ,Randall's Island Park: Wards Meadow Fields-Soccer-70 ,Randall's Island Park: East River Fields-Soccer-82 ,Randall's Island Park: East River Fields-Soccer-85 ,Randall's Island Park: Sunken Garden Fields-Soccer-90 ,Randall's Island Park: Sunken Garden Fields-Soccer-91 ,Randall's Island Park: E","",N/A,"11,","25,",40.7845381,-73.93463249999999
512150,Soccer -Regulation,12/09/2019 07:00:00 AM,12/09/2019 10:00:00 PM,Parks Department,Sport - Adult,Manhattan,"Randall's Island Park: East River Fields-Soccer-84 ,Randall's Island Park: East River Fields-Soccer-82 ,Randall's Island Park: East River Fields-Soccer-82 ,Randall's Island Park: East River Fields-Soccer-83 ,Randall's Island Park: Wards Meadow Fields-Soccer-70 ,Randall's Island Park: East River Fields-Soccer-82 ,Randall's Island Park: East River Fields-Soccer-85 ,Randall's Island Park: Sunken Garden Fields-Soccer-90 ,Randall's Island Park: Sunken Garden Fields-Soccer-91 ,Randall's Island Park: E","",N/A,"11,","25,",40.7845381,-73.93463249999999
468135,Miscellaneous,12/04/2019 07:00:00 AM,12/04/2019 03:00:00 PM,Parks Department,Special Event,Manhattan,"Booker T. Washington Playground: Soccer-01 ,Booker T. Washington Playground: Softball-01 ,Moore Playground: Softball-01 ,Playground one Twenty Five CXXV (PS 125): Softball-01 ,Holcombe Rucker Park: Softball-01 ,Tecumseh Playground: Softball-01 ,Wagner Playground: Soccer-01 ,Wagner Playground: Softball-01 ,Jacob H. Schiff Playground: Soccer-01 ,Jacob H. Schiff Playground: Softball-01 ,Peter's Field: Soccer-01 ,Peter's Field: Softball-01 ,Happy Warrior Playground: Softball-01 ,Sol Lain Plgd: Softb","",N/A,"03, 06, 07, 09, 10, 11,","13, 20, 24, 25, 26, 30, 32, 7,",40.8009054,-73.9637367
512150,Soccer -Regulation,12/16/2019 07:00:00 AM,12/16/2019 10:00:00 PM,Parks Department,Sport - Adult,Manhattan,"Randall's Island Park: East River Fields-Soccer-84 ,Randall's Island Park: East River Fields-Soccer-82 ,Randall's Island Park: East River Fields-Soccer-82 ,Randall's Island Park: East River Fields-Soccer-83 ,Randall's Island Park: Wards Meadow Fields-Soccer-70 ,Randall's Island Park: East River Fields-Soccer-82 ,Randall's Island Park: East River Fields-Soccer-85 ,Randall's Island Park: Sunken Garden Fields-Soccer-90 ,Randall's Island Park: Sunken Garden Fields-Soccer-91 ,Randall's Island Park: E","",N/A,"11,","25,",40.7845381,-73.93463249999999
515330,Permitted Film Event,12/01/2019 12:00:00 PM,12/06/2019 11:59:00 PM,"Mayor's Office of Film, Theatre & Broadcasting",Theater Load in and Load Outs,Manhattan,210 WEST   43 STREET,"",N/A,"5,","14,",39.834177,-86.16220039999999
516699,Renaissance Parade,12/07/2019 03:00:00 PM,12/07/2019 05:00:00 PM,Police Department,Parade,Queens,"162-04 SOUTH ROAD, SOUTH ROAD between 160 STREET and SUTPHIN BOULEVARD,  SUTPHIN BOULEVARD between SOUTH ROAD and 115 AVENUE,  SUTPHIN BOULEVARD between 114 ROAD and 115 AVENUE","",Full Street Closure,"12,","103, 113,",40.7055477,-73.8097056
466819,Fall project,12/05/2019 12:01:00 AM,12/05/2019 08:00:00 AM,Street Activity Permit Office,Plaza Partner Event,Manhattan,"46/47 Broadway Pedestrian Plaza (Times Sq): 46/47 Broadway Pedestrian Plaza (Times Sq) BROADWAY between WEST   46 STREET and WEST   47 STREET,  WEST   46 STREET between 7 AVENUE and 8 AVENUE",Full,Pedestrian Plaza,"4, 5,","18,",40.7579747,-73.9855426
468135,Miscellaneous,12/13/2019 07:00:00 AM,12/13/2019 03:00:00 PM,Parks Department,Special Event,Manhattan,"Booker T. Washington Playground: Soccer-01 ,Booker T. Washington Playground: Softball-01 ,Moore Playground: Softball-01 ,Playground one Twenty Five CXXV (PS 125): Softball-01 ,Holcombe Rucker Park: Softball-01 ,Tecumseh Playground: Softball-01 ,Wagner Playground: Soccer-01 ,Wagner Playground: Softball-01 ,Jacob H. Schiff Playground: Soccer-01 ,Jacob H. Schiff Playground: Softball-01 ,Peter's Field: Soccer-01 ,Peter's Field: Softball-01 ,Happy Warrior Playground: Softball-01 ,Sol Lain Plgd: Softb","",N/A,"03, 06, 07, 09, 10, 11,","13, 20, 24, 25, 26, 30, 32, 7,",40.8009054,-73.9637367
518213,Human Rights,12/08/2019 02:00:00 PM,12/08/2019 05:00:00 PM,Street Activity Permit Office,Rally,Manhattan,Union Square Plaza: Union Square Plaza Broadway between E 17 Street and E 18 Street,Full,Pedestrian Plaza,"5,","13,",40.9081977,-73.8965742
519788,Permitted Film Event,12/04/2019 12:01:00 AM,12/09/2019 01:00:00 PM,"Mayor's Office of Film, Theatre & Broadcasting",Shooting Permit,Manhattan,"180 CENTRAL PARK WEST, CENTRAL PARK WEST between WEST   77 STREET and WEST   81 STREET,  WEST   77 STREET between CENTRAL PARK WEST and COLUMBUS AVENUE","",N/A,"64, 7,","20, 22,",40.780319,-73.976075
518518,Plaza de las Americas,12/24/2019 07:00:00 AM,12/24/2019 07:00:00 PM,Street Activity Permit Office,Miscellaneous,Manhattan,Plaza de Las Americas: Plaza de Las Americas WEST  175 STREET between BROADWAY and WADSWORTH AVENUE,Full,Pedestrian Plaza,"12,","33,",40.84609080000001,-73.9380967
468135,Miscellaneous,12/16/2019 07:00:00 AM,12/16/2019 03:00:00 PM,Parks Department,Special Event,Manhattan,"Booker T. Washington Playground: Soccer-01 ,Booker T. Washington Playground: Softball-01 ,Moore Playground: Softball-01 ,Playground one Twenty Five CXXV (PS 125): Softball-01 ,Holcombe Rucker Park: Softball-01 ,Tecumseh Playground: Softball-01 ,Wagner Playground: Soccer-01 ,Wagner Playground: Softball-01 ,Jacob H. Schiff Playground: Soccer-01 ,Jacob H. Schiff Playground: Softball-01 ,Peter's Field: Soccer-01 ,Peter's Field: Softball-01 ,Happy Warrior Playground: Softball-01 ,Sol Lain Plgd: Softb","",N/A,"03, 06, 07, 09, 10, 11,","13, 20, 24, 25, 26, 30, 32, 7,",40.8009054,-73.9637367
512150,Soccer -Regulation,12/30/2019 07:00:00 AM,12/30/2019 10:00:00 PM,Parks Department,Sport - Adult,Manhattan,"Randall's Island Park: East River Fields-Soccer-84 ,Randall's Island Park: East River Fields-Soccer-82 ,Randall's Island Park: East River Fields-Soccer-82 ,Randall's Island Park: East River Fields-Soccer-83 ,Randall's Island Park: Wards Meadow Fields-Soccer-70 ,Randall's Island Park: East River Fields-Soccer-82 ,Randall's Island Park: East River Fields-Soccer-85 ,Randall's Island Park: Sunken Garden Fields-Soccer-90 ,Randall's Island Park: Sunken Garden Fields-Soccer-91 ,Randall's Island Park: E","",N/A,"11,","25,",40.7845381,-73.93463249999999
468135,Miscellaneous,12/09/2019 07:00:00 AM,12/09/2019 03:00:00 PM,Parks Department,Special Event,Manhattan,"Booker T. Washington Playground: Soccer-01 ,Booker T. Washington Playground: Softball-01 ,Moore Playground: Softball-01 ,Playground one Twenty Five CXXV (PS 125): Softball-01 ,Holcombe Rucker Park: Softball-01 ,Tecumseh Playground: Softball-01 ,Wagner Playground: Soccer-01 ,Wagner Playground: Softball-01 ,Jacob H. Schiff Playground: Soccer-01 ,Jacob H. Schiff Playground: Softball-01 ,Peter's Field: Soccer-01 ,Peter's Field: Softball-01 ,Happy Warrior Playground: Softball-01 ,Sol Lain Plgd: Softb","",N/A,"03, 06, 07, 09, 10, 11,","13, 20, 24, 25, 26, 30, 32, 7,",40.8009054,-73.9637367
468135,Miscellaneous,12/18/2019 07:00:00 AM,12/18/2019 03:00:00 PM,Parks Department,Special Event,Manhattan,"Booker T. Washington Playground: Soccer-01 ,Booker T. Washington Playground: Softball-01 ,Moore Playground: Softball-01 ,Playground one Twenty Five CXXV (PS 125): Softball-01 ,Holcombe Rucker Park: Softball-01 ,Tecumseh Playground: Softball-01 ,Wagner Playground: Soccer-01 ,Wagner Playground: Softball-01 ,Jacob H. Schiff Playground: Soccer-01 ,Jacob H. Schiff Playground: Softball-01 ,Peter's Field: Soccer-01 ,Peter's Field: Softball-01 ,Happy Warrior Playground: Softball-01 ,Sol Lain Plgd: Softb","",N/A,"03, 06, 07, 09, 10, 11,","13, 20, 24, 25, 26, 30, 32, 7,",40.8009054,-73.9637367
518518,Plaza de las Americas,12/09/2019 07:00:00 AM,12/09/2019 07:00:00 PM,Street Activity Permit Office,Miscellaneous,Manhattan,Plaza de Las Americas: Plaza de Las Americas WEST  175 STREET between BROADWAY and WADSWORTH AVENUE,Full,Pedestrian Plaza,"12,","33,",40.84609080000001,-73.9380967
516673,Virgin de Guadalupe Procession,12/08/2019 06:00:00 AM,12/08/2019 02:00:00 PM,Police Department,Parade,Manhattan,"328 WEST   14 STREET, WEST   14 STREET between 8 AVENUE and 5 AVENUE,  EAST   14 STREET between 5 AVENUE and 3 AVENUE,  3 AVENUE between EAST   14 STREET and EAST  116 STREET,  EAST  116 STREET between 3 AVENUE and 1 AVENUE,  1 AVENUE between EAST  116 STREET and EAST  117 STREET,  EAST  117 STREET between 1 AVENUE and PARK AVENUE,  EAST  117 STREET between LEXINGTON AVENUE and PARK AVENUE,  W 14 ST between 9 AV and 8 AV",East,Full Street Closure,"11, 2, 3, 4, 5, 6, 8,","10, 13, 17, 19, 23, 25, 6, 9,",40.80066679999999,-73.94646399999999
468135,Miscellaneous,12/25/2019 07:00:00 AM,12/25/2019 03:00:00 PM,Parks Department,Special Event,Manhattan,"Booker T. Washington Playground: Soccer-01 ,Booker T. Washington Playground: Softball-01 ,Moore Playground: Softball-01 ,Playground one Twenty Five CXXV (PS 125): Softball-01 ,Holcombe Rucker Park: Softball-01 ,Tecumseh Playground: Softball-01 ,Wagner Playground: Soccer-01 ,Wagner Playground: Softball-01 ,Jacob H. Schiff Playground: Soccer-01 ,Jacob H. Schiff Playground: Softball-01 ,Peter's Field: Soccer-01 ,Peter's Field: Softball-01 ,Happy Warrior Playground: Softball-01 ,Sol Lain Plgd: Softb","",N/A,"03, 06, 07, 09, 10, 11,","13, 20, 24, 25, 26, 30, 32, 7,",40.8009054,-73.9637367
512150,Soccer -Regulation,12/14/2019 07:00:00 AM,12/14/2019 10:00:00 PM,Parks Department,Sport - Adult,Manhattan,"Randall's Island Park: East River Fields-Soccer-84 ,Randall's Island Park: East River Fields-Soccer-82 ,Randall's Island Park: East River Fields-Soccer-82 ,Randall's Island Park: East River Fields-Soccer-83 ,Randall's Island Park: Wards Meadow Fields-Soccer-70 ,Randall's Island Park: East River Fields-Soccer-82 ,Randall's Island Park: East River Fields-Soccer-85 ,Randall's Island Park: Sunken Garden Fields-Soccer-90 ,Randall's Island Park: Sunken Garden Fields-Soccer-91 ,Randall's Island Park: E","",N/A,"11,","25,",40.7845381,-73.93463249999999
